GSAT-18                 
1 41793U 16060A   26160.14239100 -.00000060  00000+0  00000+0 0  9997
2 41793   0.0433 118.7419 0005693 312.1551 311.8781  1.00271163 35444
SKY MUSTER 2 (NBN1B)    
1 41794U 16060B   26159.94279441 -.00000227  00000+0  00000+0 0  9991
2 41794   0.0113 297.8542 0001601 135.5193 308.1720  1.00272750 35434
HIMAWARI-9              
1 41836U 16064A   26160.29846831 -.00000258  00000+0  00000+0 0  9999
2 41836   0.0359 162.1349 0000853 318.8556  24.9115  1.00272343 35135
SHIJIAN-17 (SJ-17)      
1 41838U 16065A   26159.60885139  .00000023  00000+0  00000+0 0  9998
2 41838   5.7301  72.7072 0001923  24.5294 267.6333  0.99853626 35116
GOES 16                 
1 41866U 16071A   26160.23329439 -.00000074  00000+0  00000+0 0  9990
2 41866   0.3193  85.6068 0000404 312.6460 198.6748  1.00270559 35028
TIANLIAN 1-04           
1 41869U 16072A   26160.23425964  .00000047  00000+0  00000+0 0  9993
2 41869   0.8484  82.9528 0041918  89.7272 346.0822  1.00269786 35222
WGS F8 (USA 272)        
1 41879U 16075A   26159.87244758 -.00000186  00000+0  00000+0 0  9990
2 41879   0.0057 354.5862 0000235 346.9821  19.5808  1.00270361 34737
FENGYUN 4A              
1 41882U 16077A   26160.29508830 -.00000340  00000+0  00000+0 0  9990
2 41882   2.3018  80.3704 0008326 151.5209 255.7921  1.00273462 34859
ECHOSTAR 19             
1 41893U 16079A   26160.23467736 -.00000122  00000+0  00000+0 0  9995
2 41893   0.0184 359.9075 0001285  79.7230 165.3812  1.00271181 34624
JCSAT-110A (JCSAT-15)   
1 41903U 16082A   26160.00721381 -.00000333  00000+0  00000+0 0  9999
2 41903   0.0175 343.1708 0000661  31.4798 355.4005  1.00255335 34679
STAR ONE D1             
1 41904U 16082B   26160.18257956 -.00000194  00000+0  00000+0 0  9996
2 41904   0.0218  58.2008 0002169  27.2034 153.8773  1.00272861 34693
TJS-2                   
1 41911U 17001A   26160.20302545  .00000010  00000+0  00000+0 0  9990
2 41911   0.8117  85.4406 0000632  27.4334 284.3442  1.00272617 34635
SBIRS GEO-4 (USA 273)   
1 41937U 17004A   26160.27473612  .00000140  00000+0  00000+0 0  9996
2 41937   2.2272  43.0469 0002132  30.2755 304.1415  1.00272105 34516
HISPASAT 36W-1          
1 41942U 17006A   26160.19212104 -.00000227  00000+0  00000+0 0  9999
2 41942   0.0181 229.2595 0001231 205.2457 216.2381  1.00273041 34163
TELKOM 3S               
1 41944U 17007A   26160.29396163  .00000000  00000+0  00000+0 0  9999
2 41944   0.0177 334.1041 0002108 111.7166  35.6785  1.00266849 34062
INTELSAT 32E (IS-32E)   
1 41945U 17007B   26160.08652259 -.00000252  00000+0  00000+0 0  9998
2 41945   0.0023 348.0424 0000672 336.8096 280.6015  1.00274840 34145
ECHOSTAR 23             
1 42070U 17014A   26160.03496279  .00000000  00000+0  00000+0 0  9999
2 42070   0.0199 341.1115 0001490  88.1607  90.8350  1.00276522 33842
WGS F9 (USA 275)        
1 42075U 17016A   26160.30253185 -.00000080  00000+0  00000+0 0  9992
2 42075   0.0087 282.7949 0000204 202.7966 229.0052  1.00270310 33813
SES-10                  
1 42432U 17017A   26160.20470112 -.00000256  00000+0  00000+0 0  9995
2 42432   0.0197  29.9099 0002807  55.9354 178.5382  1.00269556 33677
CHINASAT 16 (SJ-13)     
1 42662U 17018A   26160.36374366 -.00000335  00000+0  00000+0 0  9990
2 42662   0.0962  91.1721 0004189 138.2449 269.8268  1.00275407 33679
KOREASAT 7              
1 42691U 17023A   26160.07614222 -.00000345  00000+0  00000+0 0  9995
2 42691   0.0186 353.4990 0000522  67.8840 339.3727  1.00271459 33283
SGDC                    
1 42692U 17023B   26159.49444697 -.00000234  00000+0  00000+0 0  9994
2 42692   0.0282  64.8181 0002797  22.5515 272.6721  1.00271936 33316
GSAT-9                  
1 42695U 17024A   26160.09836507 -.00000270  00000+0  00000+0 0  9991
2 42695   0.0117 316.4776 0002556 117.1490 316.6106  1.00272507 33218
INMARSAT 5-F4           
1 42698U 17025A   26160.13918432  .00000092  00000+0  00000+0 0  9999
2 42698   0.0177 351.8920 0000065 193.2614 178.9583  1.00273429 33196
SES-15                  
1 42709U 17026A   26159.53201694  .00000076  00000+0  00000+0 0  9992
2 42709   0.0197 332.0701 0000516  88.0806 259.1449  1.00270105  7343
QZS-2 (MICHIBIKI-2)     
1 42738U 17028A   26159.56585652 -.00000150  00000+0  00000+0 0  9992
2 42738  39.4403 243.2817 0760493 269.1681  89.5416  1.00286250  7541
VIASAT-2                
1 42740U 17029A   26160.11415045 -.00000249  00000+0  00000+0 0  9996
2 42740   0.0187 291.3466 0000171 135.2981 162.0599  1.00271449 33123
EUTELSAT 172B           
1 42741U 17029B   26160.23330631  .00000011  00000+0  00000+0 0  9993
2 42741   0.0301 117.1552 0000010 100.9080 295.5438  1.00271814 33663
GSAT-19                 
1 42747U 17031A   26160.20876112  .00000142  00000+0  00000+0 0  9993
2 42747   0.1117  90.6632 0006891 350.7690 299.1683  1.00271567 33065
ECHOSTAR 21             
1 42749U 17032A   26160.27256944  .00000080  00000+0  00000+0 0  9999
2 42749   1.7717 355.1577 0002246  88.5561 282.3264  1.00271201 33020
BULGARIASAT-1           
1 42801U 17038A   26160.05701573  .00000027  00000+0  00000+0 0  9994
2 42801   0.0199 281.2746 0003429 171.9526 186.6324  1.00269313 32768
