OBJECT_NAME,OBJECT_ID,EPOCH,MEAN_MOTION,ECCENTRICITY,INCLINATION,RA_OF_ASC_NODE,ARG_OF_PERICENTER,MEAN_ANOMALY,EPHEMERIS_TYPE,CLASSIFICATION_TYPE,NORAD_CAT_ID,ELEMENT_SET_NO,REV_AT_EPOCH,BSTAR,MEAN_MOTION_DOT,MEAN_MOTION_DDOT
GSAT-18,2016-060A,2026-06-09T03:25:02.582400,1.00271163,.00056938,0.0433,118.7419,312.1551,311.8781,0,U,41793,999,3544,0,-.6E-6,0
SKY MUSTER 2 (NBN1B),2016-060B,2026-06-08T22:37:37.437024,1.00272750,.00016019,0.0113,297.8542,135.5193,308.1720,0,U,41794,999,3543,0,-.227E-5,0
HIMAWARI-9,2016-064A,2026-06-09T07:09:47.661984,1.00272343,.00008537,0.0359,162.1349,318.8556,24.9115,0,U,41836,999,3513,0,-.258E-5,0
SHIJIAN-17 (SJ-17),2016-065A,2026-06-08T14:36:44.760096,0.99853626,.0001923,5.7301,72.7072,24.5294,267.6333,0,U,41838,999,3511,0,.23E-6,0
GOES 16,2016-071A,2026-06-09T05:35:56.635296,1.00270559,.00004046,0.3193,85.6068,312.6460,198.6748,0,U,41866,999,3502,0,-.74E-6,0
TIANLIAN 1-04,2016-072A,2026-06-09T05:37:20.032896,1.00269786,.00419185,0.8484,82.9528,89.7272,346.0822,0,U,41869,999,3522,0,.47E-6,0
WGS F8 (USA 272),2016-075A,2026-06-08T20:56:19.470912,1.00270361,.00002351,0.0057,354.5862,346.9821,19.5808,0,U,41879,999,3473,0,-.186E-5,0
FENGYUN 4A,2016-077A,2026-06-09T07:04:55.629120,1.00273462,.00083266,2.3018,80.3704,151.5209,255.7921,0,U,41882,999,3485,0,-.34E-5,0
ECHOSTAR 19,2016-079A,2026-06-09T05:37:56.123904,1.00271181,.00012857,0.0184,359.9075,79.7230,165.3812,0,U,41893,999,3462,0,-.122E-5,0
JCSAT-110A (JCSAT-15),2016-082A,2026-06-09T00:10:23.273184,1.00255335,.00006617,0.0175,343.1708,31.4798,355.4005,0,U,41903,999,3467,0,-.333E-5,0
STAR ONE D1,2016-082B,2026-06-09T04:22:54.873984,1.00272861,.00021694,0.0218,58.2008,27.2034,153.8773,0,U,41904,999,3469,0,-.194E-5,0
TJS-2,2017-001A,2026-06-09T04:52:21.398880,1.00272617,.00006324,0.8117,85.4406,27.4334,284.3442,0,U,41911,999,3463,0,.1E-6,0
SBIRS GEO-4 (USA 273),2017-004A,2026-06-09T06:35:37.200768,1.00272105,.00021325,2.2272,43.0469,30.2755,304.1415,0,U,41937,999,3451,0,.14E-5,0
HISPASAT 36W-1,2017-006A,2026-06-09T04:36:39.257856,1.00273041,.00012316,0.0181,229.2595,205.2457,216.2381,0,U,41942,999,3416,0,-.227E-5,0
TELKOM 3S,2017-007A,2026-06-09T07:03:18.284832,1.00266849,.00021084,0.0177,334.1041,111.7166,35.6785,0,U,41944,999,3406,0,0,0
INTELSAT 32E (IS-32E),2017-007B,2026-06-09T02:04:35.551776,1.00274840,.0000672,0.0023,348.0424,336.8096,280.6015,0,U,41945,999,3414,0,-.252E-5,0
ECHOSTAR 23,2017-014A,2026-06-09T00:50:20.785056,1.00276522,.00014908,0.0199,341.1115,88.1607,90.8350,0,U,42070,999,3384,0,0,0
WGS F9 (USA 275),2017-016A,2026-06-09T07:15:38.751840,1.00270310,.00002045,0.0087,282.7949,202.7966,229.0052,0,U,42075,999,3381,0,-.8E-6,0
SES-10,2017-017A,2026-06-09T04:54:46.176768,1.00269556,.00028078,0.0197,29.9099,55.9354,178.5382,0,U,42432,999,3367,0,-.256E-5,0
CHINASAT 16 (SJ-13),2017-018A,2026-06-09T08:43:47.452224,1.00275407,.0004189,0.0962,91.1721,138.2449,269.8268,0,U,42662,999,3367,0,-.335E-5,0
KOREASAT 7,2017-023A,2026-06-09T01:49:38.687808,1.00271459,.00005227,0.0186,353.4990,67.8840,339.3727,0,U,42691,999,3328,0,-.345E-5,0
SGDC,2017-023B,2026-06-08T11:52:00.218208,1.00271936,.0002797,0.0282,64.8181,22.5515,272.6721,0,U,42692,999,3331,0,-.234E-5,0
GSAT-9,2017-024A,2026-06-09T02:21:38.742048,1.00272507,.00025568,0.0117,316.4776,117.1490,316.6106,0,U,42695,999,3321,0,-.27E-5,0
INMARSAT 5-F4,2017-025A,2026-06-09T03:20:25.525248,1.00273429,.00000655,0.0177,351.8920,193.2614,178.9583,0,U,42698,999,3319,0,.92E-6,0
SES-15,2017-026A,2026-06-08T12:46:06.263616,1.00270105,.00005164,0.0197,332.0701,88.0806,259.1449,0,U,42709,999,734,0,.76E-6,0
QZS-2 (MICHIBIKI-2),2017-028A,2026-06-08T13:34:50.003328,1.00286250,.07604931,39.4403,243.2817,269.1681,89.5416,0,U,42738,999,754,0,-.15E-5,0
VIASAT-2,2017-029A,2026-06-09T02:44:22.598880,1.00271449,.00001717,0.0187,291.3466,135.2981,162.0599,0,U,42740,999,3312,0,-.249E-5,0
EUTELSAT 172B,2017-029B,2026-06-09T05:35:57.665184,1.00271814,.00000105,0.0301,117.1552,100.9080,295.5438,0,U,42741,999,3366,0,.11E-6,0
GSAT-19,2017-031A,2026-06-09T05:00:36.960768,1.00271567,.00068919,0.1117,90.6632,350.7690,299.1683,0,U,42747,999,3306,0,.142E-5,0
ECHOSTAR 21,2017-032A,2026-06-09T06:32:29.999616,1.00271201,.00022467,1.7717,355.1577,88.5561,282.3264,0,U,42749,999,3302,0,.8E-6,0
BULGARIASAT-1,2017-038A,2026-06-09T01:22:06.159072,1.00269313,.00034291,0.0199,281.2746,171.9526,186.6324,0,U,42801,999,3276,0,.27E-6,0
